HIMAWARI-8              
1 40267U 14060A   23201.78035576 -.00000272  00000+0  00000+0 0  9999
2 40267   0.0196  54.6184 0000651  55.8631 249.4059  1.00268849 32214
